start=new Date('2023-01-19T00:00:00.000Z').valueOf();
sats=[{"MEAN_MOTION_DDOT":"0.0000000000000","FILE":"3754254","ARG_OF_PERICENTER":"87.5334","EPHEMERIS_TYPE":"0","RA_OF_ASC_NODE":"170.8812","MEAN_MOTION_DOT":"0.00001319","DECAY_DATE":null,"REF_FRAME":"TEME","MEAN_MOTION":"15.06405398","TLE_LINE1":"1 45661U 20035E   23018.76485176  .00001319  00000-0  10741-3 0  9990","OBJECT_ID":"2020-035E","PERIOD":"95.592","SITE":"AFETR","MEAN_ANOMALY":"272.5777","ELEMENT_SET_NO":"999","TIME_SYSTEM":"UTC","INCLINATION":"53.0527","APOAPSIS":"547.935","BSTAR":"0.00010741000000","CENTER_NAME":"EARTH","OBJECT_TYPE":"PAYLOAD","PERIAPSIS":"546.459","LAUNCH_DATE":"2020-06-04","SEMIMAJOR_AXIS":"6925.332","EPOCH":"2023-01-18T18:21:23.192064","TLE_LINE2":"2 45661  53.0527 170.8812 0001066  87.5334 272.5777 15.06405398146016","MEAN_ELEMENT_THEORY":"SGP4","ECCENTRICITY":"0.00010660","NORAD_CAT_ID":"45661","OBJECT_NAME":"STARLINK-1444","COUNTRY_CODE":"US","REV_AT_EPOCH":"14601","GP_ID":"223451615","CLASSIFICATION_TYPE":"U","RCS_SIZE":"LARGE"},{"INCLINATION":"53.0533","TIME_SYSTEM":"UTC","ELEMENT_SET_NO":"999","APOAPSIS":"548.135","PERIAPSIS":"546.307","OBJECT_TYPE":"PAYLOAD","CENTER_NAME":"EARTH","BSTAR":"0.00008990800000","LAUNCH_DATE":"2020-06-04","SEMIMAJOR_AXIS":"6925.356","EPOCH":"2023-01-18T15:31:32.798496","OBJECT_NAME":"STARLINK-1445","NORAD_CAT_ID":"45662","ECCENTRICITY":"0.00013200","MEAN_ELEMENT_THEORY":"SGP4","TLE_LINE2":"2 45662  53.0533 171.4161 0001320  87.1438 272.9702 15.06397631145990","GP_ID":"223451865","CLASSIFICATION_TYPE":"U","RCS_SIZE":"LARGE","REV_AT_EPOCH":"14599","COUNTRY_CODE":"US","MEAN_MOTION_DDOT":"0.0000000000000","ARG_OF_PERICENTER":"87.1438","FILE":"3754254","RA_OF_ASC_NODE":"171.4161","EPHEMERIS_TYPE":"0","MEAN_MOTION_DOT":"0.00001058","TLE_LINE1":"1 45662U 20035F   23018.64690739  .00001058  00000-0  89908-4 0  9993","MEAN_MOTION":"15.06397631","DECAY_DATE":null,"REF_FRAME":"TEME","OBJECT_ID":"2020-035F","PERIOD":"95.592","MEAN_ANOMALY":"272.9702","SITE":"AFETR"},{"PERIOD":"95.591","MEAN_ANOMALY":"277.4949","SITE":"AFETR","TLE_LINE1":"1 45663U 20035G   23018.78327826  .00003847  00000-0  27693-3 0  9993","MEAN_MOTION":"15.06410271","DECAY_DATE":null,"REF_FRAME":"TEME","OBJECT_ID":"2020-035G","EPHEMERIS_TYPE":"0","RA_OF_ASC_NODE":"170.7842","MEAN_MOTION_DOT":"0.00003847","MEAN_MOTION_DDOT":"0.0000000000000","ARG_OF_PERICENTER":"82.6174","FILE":"3754254","OBJECT_NAME":"STARLINK-1446","NORAD_CAT_ID":"45663","ECCENTRICITY":"0.00011810","TLE_LINE2":"2 45663  53.0552 170.7842 0001181  82.6174 277.4949 15.06410271146015","MEAN_ELEMENT_THEORY":"SGP4","GP_ID":"223452116","CLASSIFICATION_TYPE":"U","RCS_SIZE":"LARGE","REV_AT_EPOCH":"14601","COUNTRY_CODE":"US","LAUNCH_DATE":"2020-06-04","SEMIMAJOR_AXIS":"6925.317","EPOCH":"2023-01-18T18:47:55.241664","APOAPSIS":"548.000","OBJECT_TYPE":"PAYLOAD","PERIAPSIS":"546.364","CENTER_NAME":"EARTH","BSTAR":"0.00027693000000","INCLINATION":"53.0552","TIME_SYSTEM":"UTC","ELEMENT_SET_NO":"999"},{"BSTAR":"0.00019804000000","CENTER_NAME":"EARTH","OBJECT_TYPE":"PAYLOAD","PERIAPSIS":"546.446","APOAPSIS":"547.956","INCLINATION":"53.0529","ELEMENT_SET_NO":"999","TIME_SYSTEM":"UTC","REV_AT_EPOCH":"14599","GP_ID":"223452866","CLASSIFICATION_TYPE":"U","RCS_SIZE":"LARGE","COUNTRY_CODE":"US","NORAD_CAT_ID":"45665","OBJECT_NAME":"STARLINK-1448","MEAN_ELEMENT_THEORY":"SGP4","TLE_LINE2":"2 45665  53.0529 171.2478 0001090  88.7866 271.3248 15.06404018145999","ECCENTRICITY":"0.00010900","SEMIMAJOR_AXIS":"6925.336","EPOCH":"2023-01-18T16:24:36.881280","LAUNCH_DATE":"2020-06-04","MEAN_MOTION_DOT":"0.00002670","EPHEMERIS_TYPE":"0","RA_OF_ASC_NODE":"171.2478","FILE":"3754254","ARG_OF_PERICENTER":"88.7866","MEAN_MOTION_DDOT":"0.0000000000000","MEAN_ANOMALY":"271.3248","SITE":"AFETR","PERIOD":"95.592","OBJECT_ID":"2020-035J","TLE_LINE1":"1 45665U 20035J   23018.68376020  .00002670  00000-0  19804-3 0  9992","DECAY_DATE":null,"REF_FRAME":"TEME","MEAN_MOTION":"15.06404018"},{"APOAPSIS":"547.984","BSTAR":"0.00145270000000","PERIAPSIS":"546.344","OBJECT_TYPE":"PAYLOAD","CENTER_NAME":"EARTH","INCLINATION":"53.0517","ELEMENT_SET_NO":"999","TIME_SYSTEM":"UTC","OBJECT_NAME":"STARLINK-1449","NORAD_CAT_ID":"45666","MEAN_ELEMENT_THEORY":"SGP4","TLE_LINE2":"2 45666  53.0517 171.2003 0001184  90.1795 269.9330 15.06416089145999","ECCENTRICITY":"0.00011840","REV_AT_EPOCH":"14599","GP_ID":"223451115","CLASSIFICATION_TYPE":"U","RCS_SIZE":"LARGE","COUNTRY_CODE":"US","LAUNCH_DATE":"2020-06-04","SEMIMAJOR_AXIS":"6925.299","EPOCH":"2023-01-18T16:29:55.351680","EPHEMERIS_TYPE":"0","RA_OF_ASC_NODE":"171.2003","MEAN_MOTION_DOT":"0.00021432","MEAN_MOTION_DDOT":"0.0000000000000","FILE":"3754254","ARG_OF_PERICENTER":"90.1795","PERIOD":"95.591","MEAN_ANOMALY":"269.9330","SITE":"AFETR","TLE_LINE1":"1 45666U 20035K   23018.68744620  .00021432  00000-0  14527-2 0  9991","REF_FRAME":"TEME","DECAY_DATE":null,"MEAN_MOTION":"15.06416089","OBJECT_ID":"2020-035K"},{"TIME_SYSTEM":"UTC","ELEMENT_SET_NO":"999","INCLINATION":"53.0527","APOAPSIS":"547.998","OBJECT_TYPE":"PAYLOAD","PERIAPSIS":"546.397","CENTER_NAME":"EARTH","BSTAR":"0.00007318800000","LAUNCH_DATE":"2020-06-04","EPOCH":"2023-01-18T18:09:25.100064","SEMIMAJOR_AXIS":"6925.332","ECCENTRICITY":"0.00011560","TLE_LINE2":"2 45667  53.0527 170.9515 0001156  97.3469 262.7651 15.06405292146005","MEAN_ELEMENT_THEORY":"SGP4","NORAD_CAT_ID":"45667","OBJECT_NAME":"STARLINK-1450","COUNTRY_CODE":"US","CLASSIFICATION_TYPE":"U","GP_ID":"223451365","RCS_SIZE":"LARGE","REV_AT_EPOCH":"14600","MEAN_MOTION_DDOT":"0.0000000000000","ARG_OF_PERICENTER":"97.3469","FILE":"3754254","EPHEMERIS_TYPE":"0","RA_OF_ASC_NODE":"170.9515","MEAN_MOTION_DOT":"0.00000809","MEAN_MOTION":"15.06405292","REF_FRAME":"TEME","DECAY_DATE":null,"TLE_LINE1":"1 45667U 20035L   23018.75654051  .00000809  00000-0  73188-4 0  9993","OBJECT_ID":"2020-035L","PERIOD":"95.592","SITE":"AFETR","MEAN_ANOMALY":"262.7651"},{"REF_FRAME":"TEME","DECAY_DATE":null,"MEAN_MOTION":"15.06394202","TLE_LINE1":"1 45668U 20035M   23018.72336908  .00001710  00000-0  13367-3 0  9993","OBJECT_ID":"2020-035M","PERIOD":"95.593","SITE":"AFETR","MEAN_ANOMALY":"280.4364","MEAN_MOTION_DDOT":"0.0000000000000","FILE":"3754254","ARG_OF_PERICENTER":"79.6769","RA_OF_ASC_NODE":"171.0709","EPHEMERIS_TYPE":"0","MEAN_MOTION_DOT":"0.00001710","LAUNCH_DATE":"2020-06-04","EPOCH":"2023-01-18T17:21:39.088512","SEMIMAJOR_AXIS":"6925.366","MEAN_ELEMENT_THEORY":"SGP4","TLE_LINE2":"2 45668  53.0525 171.0709 0001278  79.6769 280.4364 15.06394202146019","ECCENTRICITY":"0.00012780","NORAD_CAT_ID":"45668","OBJECT_NAME":"STARLINK-1451","COUNTRY_CODE":"US","REV_AT_EPOCH":"14601","GP_ID":"223452617","CLASSIFICATION_TYPE":"U","RCS_SIZE":"LARGE","ELEMENT_SET_NO":"999","TIME_SYSTEM":"UTC","INCLINATION":"53.0525","APOAPSIS":"548.116","BSTAR":"0.00013367000000","CENTER_NAME":"EARTH","OBJECT_TYPE":"PAYLOAD","PERIAPSIS":"546.346"},{"RA_OF_ASC_NODE":"171.4426","EPHEMERIS_TYPE":"0","MEAN_MOTION_DOT":"0.00001704","MEAN_MOTION_DDOT":"0.0000000000000","FILE":"3754254","ARG_OF_PERICENTER":"97.4339","PERIOD":"95.592","SITE":"AFETR","MEAN_ANOMALY":"262.6789","DECAY_DATE":null,"REF_FRAME":"TEME","MEAN_MOTION":"15.06401614","TLE_LINE1":"1 45669U 20035N   23018.63954299  .00001704  00000-0  13324-3 0  9999","OBJECT_ID":"2020-035N","APOAPSIS":"548.056","BSTAR":"0.00013324000000","CENTER_NAME":"EARTH","OBJECT_TYPE":"PAYLOAD","PERIAPSIS":"546.361","ELEMENT_SET_NO":"999","TIME_SYSTEM":"UTC","INCLINATION":"53.0550","MEAN_ELEMENT_THEORY":"SGP4","TLE_LINE2":"2 45669  53.0550 171.4426 0001224  97.4339 262.6789 15.06401614145995","ECCENTRICITY":"0.00012240","NORAD_CAT_ID":"45669","OBJECT_NAME":"STARLINK-1452","COUNTRY_CODE":"US","REV_AT_EPOCH":"14599","GP_ID":"223452367","CLASSIFICATION_TYPE":"U","RCS_SIZE":"LARGE","LAUNCH_DATE":"2020-06-04","SEMIMAJOR_AXIS":"6925.344","EPOCH":"2023-01-18T15:20:56.514336"},{"BSTAR":"0.00048484000000","OBJECT_TYPE":"PAYLOAD","CENTER_NAME":"EARTH","PERIAPSIS":"546.372","APOAPSIS":"547.918","INCLINATION":"53.0523","ELEMENT_SET_NO":"999","TIME_SYSTEM":"UTC","REV_AT_EPOCH":"14631","GP_ID":"223451616","CLASSIFICATION_TYPE":"U","RCS_SIZE":"LARGE","COUNTRY_CODE":"US","NORAD_CAT_ID":"45670","OBJECT_NAME":"STARLINK-1453","MEAN_ELEMENT_THEORY":"SGP4","TLE_LINE2":"2 45670  53.0523 141.1874 0001116  92.4018 267.7099 15.06422475146312","ECCENTRICITY":"0.00011160","SEMIMAJOR_AXIS":"6925.280","EPOCH":"2023-01-18T16:44:31.237728","LAUNCH_DATE":"2020-06-04","MEAN_MOTION_DOT":"0.00006952","RA_OF_ASC_NODE":"141.1874","EPHEMERIS_TYPE":"0","FILE":"3754254","ARG_OF_PERICENTER":"92.4018","MEAN_MOTION_DDOT":"0.0000000000000","MEAN_ANOMALY":"267.7099","SITE":"AFETR","PERIOD":"95.591","OBJECT_ID":"2020-035P","TLE_LINE1":"1 45670U 20035P   23018.69758377  .00006952  00000-0  48484-3 0  9991","DECAY_DATE":null,"REF_FRAME":"TEME","MEAN_MOTION":"15.06422475"},{"MEAN_MOTION_DDOT":"0.0000000000000","ARG_OF_PERICENTER":"91.9557","FILE":"3754254","EPHEMERIS_TYPE":"0","RA_OF_ASC_NODE":"170.8290","MEAN_MOTION_DOT":"0.00001968","MEAN_MOTION":"15.06408195","DECAY_DATE":null,"REF_FRAME":"TEME","TLE_LINE1":"1 45671U 20035Q   23018.77590680  .00001968  00000-0  15093-3 0  9994","OBJECT_ID":"2020-035Q","PERIOD":"95.592","SITE":"AFETR","MEAN_ANOMALY":"268.1568","TIME_SYSTEM":"UTC","ELEMENT_SET_NO":"999","INCLINATION":"53.0548","APOAPSIS":"548.006","OBJECT_TYPE":"PAYLOAD","PERIAPSIS":"546.371","CENTER_NAME":"EARTH","BSTAR":"0.00015093000000","LAUNCH_DATE":"2020-06-04","SEMIMAJOR_AXIS":"6925.323","EPOCH":"2023-01-18T18:37:18.347520","ECCENTRICITY":"0.00011800","TLE_LINE2":"2 45671  53.0548 170.8290 0001180  91.9557 268.1568 15.06408195146009","MEAN_ELEMENT_THEORY":"SGP4","NORAD_CAT_ID":"45671","OBJECT_NAME":"STARLINK-1454","COUNTRY_CODE":"US","GP_ID":"223451866","RCS_SIZE":"LARGE","CLASSIFICATION_TYPE":"U","REV_AT_EPOCH":"14600"}];
